OBJECT_NAME,OBJECT_ID,EPOCH,MEAN_MOTION,ECCENTRICITY,INCLINATION,RA_OF_ASC_NODE,ARG_OF_PERICENTER,MEAN_ANOMALY,EPHEMERIS_TYPE,CLASSIFICATION_TYPE,NORAD_CAT_ID,ELEMENT_SET_NO,REV_AT_EPOCH,BSTAR,MEAN_MOTION_DOT,MEAN_MOTION_DDOT
SAUDISAT 1C (SO-50),2002-058C,2026-06-09T07:59:40.323840,14.83029515,.00754337,64.5504,153.2855,263.9300,95.3207,0,U,27607,999,26329,.12687505E-3,.929E-5,0
SAUDISAT 2,2004-025F,2026-06-09T13:00:13.953888,14.56679430,.00239223,98.5506,160.3262,322.6789,37.2745,0,U,28371,999,16463,.67661366E-4,.253E-5,0
SAUDISAT 3,2007-012B,2026-06-09T10:31:20.018496,14.71421134,.00133295,98.1453,110.8342,250.7072,109.2694,0,U,31118,999,2660,.47679376E-4,.244E-5,0
PISAT,2016-059B,2026-06-09T12:21:38.668896,14.68970440,.00278368,97.8178,161.2976,228.0857,131.7975,0,U,41784,999,51861,.15580809E-3,.87E-5,0
FLYING LAPTOP,2017-042G,2026-06-09T14:04:27.100128,15.01097072,.00191911,97.4658,316.4141,146.5534,213.6907,0,U,42831,999,48531,.29804059E-3,.3771E-4,0
SALSAT,2020-068K,2026-06-09T11:48:56.784960,15.29688082,.00087425,97.8855,163.0891,339.5990,20.4898,0,U,46495,999,31418,.25454403E-3,.7245E-4,0
